NORAD_CAT_ID,OBJECT_NAME,OBJECT_TYPE,EPOCH,MEAN_MOTION,ECCENTRICITY,INCLINATION,RA_OF_ASC_NODE,ARG_OF_PERICENTER,MEAN_ANOMALY,BSTAR,MEAN_MOTION_DOT,MEAN_MOTION_DDOT,TLE_LINE0,TLE_LINE1,TLE_LINE2,SEMIMAJOR_AXIS,PERIOD,APOGEE,PERIGEE,DECAYED
52491.0,STARLINK-3908,PAYLOAD,2022-05-13 14:00:01,15.80413169,0.0001734,53.2176,230.8562,27.1739,316.7155,-0.0050417,-0.0088106,0.0,0 STARLINK-3908,1 52491U 22049AS  22133.58334491 -.00881060  00000-0 -50417-2 0  9990,2 52491  53.2176 230.8562 0001734  27.1739 316.7155 15.80413169  1307,6707.408,91.115,330.436,328.11,0.0
52491.0,STARLINK-3908,PAYLOAD,2022-05-13 16:00:00,15.80220735,0.0001591,53.2166,230.4391,39.0348,59.2444,-0.0047805,-0.00832717,0.0,0 STARLINK-3908,1 52491U 22049AS  22133.66667824 -.00832717  00000-0 -47805-2 0  9990,2 52491  53.2166 230.4391 0001591  39.0348  59.2444 15.80220735  1317,6707.953,91.127,330.885,328.751,0.0
52491.0,STARLINK-3908,PAYLOAD,2022-05-14 06:00:00,15.79152369,0.0001652,53.2174,227.5227,36.7964,140.7528,-0.0053059,-0.0087549,0.0,0 STARLINK-3908,1 52491U 22049AS  22134.25001157 -.00875490  00000-0 -53059-2 0  9990,2 52491  53.2174 227.5227 0001652  36.7964 140.7528 15.79152369  1401,6710.978,91.188,333.952,331.7340000000001,0.0
52491.0,STARLINK-3908,PAYLOAD,2022-05-14 14:00:01,15.78524462,0.0001885,53.2174,225.8615,29.0263,244.2163,-0.0054855,-0.00879267,0.0,0 STARLINK-3908,1 52491U 22049AS  22134.58334491 -.00879267  00000-0 -54855-2 0  9997,2 52491  53.2174 225.8615 0001885  29.0263 244.2163 15.78524462  1308,6712.7580000000025,91.224,335.8880000000001,333.357,0.0
52491.0,STARLINK-3908,PAYLOAD,2022-05-14 22:00:00,15.77894815,0.0001385999999999,53.2175,224.1987,34.9357,333.2461,-0.0056346,-0.00877723,0.0,0 STARLINK-3908,1 52491U 22049AS  22134.91667824 -.00877723  00000-0 -56346-2 0  9995,2 52491  53.2175 224.1987 0001386  34.9357 333.2461 15.77894815  1309,6714.543000000002,91.261,337.339,335.478,0.0
52491.0,STARLINK-3908,PAYLOAD,2022-05-15 06:00:00,15.77263115,0.0001754,53.2177,222.5373,30.6208,71.7445,-0.0057611999999999,-0.00872909,0.0,0 STARLINK-3908,1 52491U 22049AS  22135.25001157 -.00872909  00000-0 -57612-2 0  9992,2 52491  53.2177 222.5373 0001754  30.6208  71.7445 15.77263115  1566,6716.3359999999975,91.297,339.379,337.023,0.0
52491.0,STARLINK-3908,PAYLOAD,2022-05-15 14:00:01,15.76635144,0.000186,53.2176,220.8807,33.314,162.5418,-0.0059459,-0.00875666,0.0,0 STARLINK-3908,1 52491U 22049AS  22135.58335648 -.00875666  00000-0 -59459-2 0  9997,2 52491  53.2176 220.8807 0001860  33.3140 162.5418 15.76635144  1306,6718.119000000002,91.334,341.2340000000001,338.735,0.0
52491.0,STARLINK-3908,PAYLOAD,2022-05-15 22:00:00,15.760078899999998,0.0001503,53.2174,219.2223,36.9909,251.4692,-0.006141,-0.00879008,0.0,0 STARLINK-3908,1 52491U 22049AS  22135.91667824 -.00879008  00000-0 -61410-2 0  9992,2 52491  53.2174 219.2223 0001503  36.9909 251.4692 15.76007890  1307,6719.901999999999,91.37,342.777,340.75699999999995,0.0
52491.0,STARLINK-3908,PAYLOAD,2022-05-16 06:00:02,15.75376046,0.0001345,53.2175,217.5659,41.2261,339.2146,-0.0062757,-0.00874001,0.0,0 STARLINK-3908,1 52491U 22049AS  22136.25002315 -.00874001  00000-0 -62757-2 0  9991,2 52491  53.2175 217.5659 0001345  41.2261 339.2146 15.75376046  1722,6721.698,91.407,344.467,342.659,0.0
52491.0,STARLINK-3908,PAYLOAD,2022-05-16 14:00:01,15.74746643,0.000185,53.2176,215.9139,29.2897,82.2416,-0.0064488,-0.00873799,0.0,0 STARLINK-3908,1 52491U 22049AS  22136.58334491 -.00873799  00000-0 -64488-2 0  9996,2 52491  53.2176 215.9139 0001850  29.2897  82.2416 15.74746643  1302,6723.489000000001,91.443,346.598,344.11,0.0
52491.0,STARLINK-3908,PAYLOAD,2022-05-16 22:00:00,15.74119105,0.0001578,53.2176,214.2599,40.6524,161.2808,-0.0066607,-0.00877581,0.0,0 STARLINK-3908,1 52491U 22049AS  22136.91667824 -.00877581  00000-0 -66607-2 0  9990,2 52491  53.2176 214.2599 0001578  40.6524 161.2808 15.74119105  1305,6725.276,91.48,348.202,346.08,0.0
52491.0,STARLINK-3908,PAYLOAD,2022-05-17 06:00:00,15.73306218,0.0001695,53.2178,212.6083,41.0948,250.5089,-0.0011343,-0.0015759,0.0,0 STARLINK-3908,1 52491U 22049AS  22137.25001157 -.00157590  00000-0 -11343-2 0  9997,2 52491  53.2178 212.6083 0001695  41.0948 250.5089 15.73306218  1879,6727.592,91.527,350.598,348.31699999999995,0.0
52491.0,STARLINK-3908,PAYLOAD,2022-05-17 12:00:00,15.73205713,0.000192,53.2176,211.3728,31.9373,236.4169,-2.1649e-05,-3.659e-05,0.0,0 STARLINK-3908,1 52491U 22049AS  22137.50001157 -.00003659  00000-0 -21649-4 0  9993,2 52491  53.2176 211.3728 0001920  31.9373 236.4169 15.73205713  1915,6727.879,91.533,351.036,348.452,0.0
52491.0,STARLINK-3908,PAYLOAD,2022-05-17 14:00:01,15.73206337,0.0001865,53.2176,210.9607,30.526,350.1269,-2.7668000000000014e-05,-4.503e-05,0.0,0 STARLINK-3908,1 52491U 22049AS  22137.58335648 -.00004503  00000-0 -27668-4 0  9992,2 52491  53.2176 210.9607 0001865  30.5260 350.1269 15.73206337  1305,6727.877,91.533,350.997,348.487,0.0
52491.0,STARLINK-3908,PAYLOAD,2022-05-17 20:00:01,15.73259001,0.0001817,53.2142,209.7183,24.9631,332.3733,0.00020731,0.00028647,0.0,0 STARLINK-3908,1 52491U 22049AS  22137.83334491  .00028647  00000-0  20731-3 0  9991,2 52491  53.2142 209.7183 0001817  24.9631 332.3733 15.73259001  1976,6727.727,91.53,350.814,348.37,0.0
52491.0,STARLINK-3908,PAYLOAD,2022-05-17 22:00:01,15.73281814,0.0001743,53.2148,209.3052,27.4813,82.1663,-7.7702e-05,-0.0001155,0.0,0 STARLINK-3908,1 52491U 22049AS  22137.91668981 -.00011550  00000-0 -77702-4 0  9992,2 52491  53.2148 209.3052 0001743  27.4813  82.1663 15.73281814  1307,6727.6619999999975,91.528,350.7,348.35400000000016,0.0
52491.0,STARLINK-3908,PAYLOAD,2022-05-18 12:00:00,15.73235537,0.0002029,53.2155,206.4196,32.4953,142.8811,-0.00041536,-0.00058603,0.0,0 STARLINK-3908,1 52491U 22049AS  22138.50001157 -.00058603  00000-0 -41536-3 0  9999,2 52491  53.2155 206.4196 0002029  32.4953 142.8811 15.73235537  2076,6727.794,91.531,351.024,348.2940000000001,0.0
52491.0,STARLINK-3908,PAYLOAD,2022-05-18 14:00:01,15.73211512,0.0002052,53.2156,206.0076,31.3601,256.2619,-0.00018334,-0.00026286,0.0,0 STARLINK-3908,1 52491U 22049AS  22138.58334491 -.00026286  00000-0 -18334-3 0  9999,2 52491  53.2156 206.0076 0002052  31.3601 256.2619 15.73211512  1302,6727.861999999999,91.533,351.108,348.347,0.0
52491.0,STARLINK-3908,PAYLOAD,2022-05-18 22:00:00,15.73191351,0.0001881,53.2155,204.3564,30.716,345.8305,-0.00083866,-0.00116669,0.0,0 STARLINK-3908,1 52491U 22049AS  22138.91667824 -.00116669  00000-0 -83866-3 0  9992,2 52491  53.2155 204.3564 0001881  30.7160 345.8305 15.73191351  1301,6727.92,91.534,351.05,348.519,0.0
52491.0,STARLINK-3908,PAYLOAD,2022-05-19 06:00:00,15.73206036,0.0002272,53.2177,202.7111,36.8508,68.40899999999999,-1.7782e-05,-3.117e-05,0.0,0 STARLINK-3908,1 52491U 22049AS  22139.25001157 -.00003117  00000-0 -17782-4 0  9999,2 52491  53.2177 202.7111 0002272  36.8508  68.4090 15.73206036  2197,6727.878000000002,91.533,351.272,348.214,0.0
52491.0,STARLINK-3908,PAYLOAD,2022-05-19 14:00:01,15.73137013,0.0002252,53.2149,201.0591,30.8025,163.6649,0.00079068,0.00111535,0.0,0 STARLINK-3908,1 52491U 22049AS  22139.58335648  .00111535  00000-0  79068-3 0  9996,2 52491  53.2149 201.0591 0002252  30.8025 163.6649 15.73137013  1304,6728.075,91.537,351.455,348.425,0.0
52491.0,STARLINK-3908,PAYLOAD,2022-05-19 22:00:00,15.73240784,0.0002006,53.2146,199.4078,31.8357,251.4759,-0.00033236,-0.00047091,0.0,0 STARLINK-3908,1 52491U 22049AS  22139.91667824 -.00047091  00000-0 -33236-3 0  9991,2 52491  53.2146 199.4078 0002006  31.8357 251.4759 15.73240784  2294,6727.779,91.531,350.99300000000005,348.2940000000001,0.0
52491.0,STARLINK-3908,PAYLOAD,2022-05-20 14:00:01,15.73201938,0.0002237,53.215,196.1106,28.0385,73.1855,-7.106e-06,-1.619e-05,0.0,0 STARLINK-3908,1 52491U 22049AS  22140.58334491 -.00001619  00000-0 -71060-5 0  9992,2 52491  53.2150 196.1106 0002237  28.0385  73.1855 15.73201938  2407,6727.89,91.533,351.26,348.25,0.0
52491.0,STARLINK-3908,PAYLOAD,2022-05-20 22:00:00,15.73159468,0.0002,53.2152,194.459,22.0769,168.0901,2.2043e-05,2.469e-05,0.0,0 STARLINK-3908,1 52491U 22049AS  22140.91667824  .00002469  00000-0  22043-4 0  9996,2 52491  53.2152 194.4590 0002000  22.0769 168.0901 15.73159468  1309,6728.011,91.536,351.221,348.53,0.0
52491.0,STARLINK-3908,PAYLOAD,2022-05-21 06:00:00,15.73206175,0.0002342,53.2178,192.814,40.3237,238.5416,-2.2203e-05,-3.738e-05,0.0,0 STARLINK-3908,1 52491U 22049AS  22141.25001157 -.00003738  00000-0 -22203-4 0  9995,2 52491  53.2178 192.8140 0002342  40.3237 238.5416 15.73206175  2507,6727.878000000002,91.533,351.3180000000001,348.167,0.0
52491.0,STARLINK-3908,PAYLOAD,2022-05-21 14:00:01,15.73179624,0.0002201,53.2147,191.1622,17.4866,350.5198,0.0005013999999999,0.00070281,0.0,0 STARLINK-3908,1 52491U 22049AS  22141.58335648  .00070281  00000-0  50140-3 0  9991,2 52491  53.2147 191.1622 0002201  17.4866 350.5198 15.73179624  2563,6727.953,91.534,351.2990000000001,348.337,0.0
52491.0,STARLINK-3908,PAYLOAD,2022-05-21 22:00:00,15.73220209,0.0001953,53.2147,189.5106,17.6135,79.2669,0.00052988,0.00074474,0.0,0 STARLINK-3908,1 52491U 22049AS  22141.91667824  .00074474  00000-0  52988-3 0  9992,2 52491  53.2147 189.5106 0001953  17.6135  79.2669 15.73220209  1300,6727.8380000000025,91.532,351.017,348.389,0.0
52491.0,STARLINK-3908,PAYLOAD,2022-05-22 06:00:00,15.73292279,0.0002038,53.2151,187.8615,21.7878,164.06599999999997,-0.00069309,-0.00097168,0.0,0 STARLINK-3908,1 52491U 22049AS  22142.25001157 -.00097168  00000-0 -69309-3 0  9993,2 52491  53.2151 187.8615 0002038  21.7878 164.0660 15.73292279  2666,6727.632,91.528,350.86800000000005,348.126,0.0
52491.0,STARLINK-3908,PAYLOAD,2022-05-22 14:00:01,15.73191185,0.0002345,53.2151,186.2136,20.4559,254.3908,-9.0647e-06,-1.893e-05,0.0,0 STARLINK-3908,1 52491U 22049AS  22142.58334491 -.00001893  00000-0 -90647-5 0  9990,2 52491  53.2151 186.2136 0002345  20.4559 254.3908 15.73191185  1302,6727.92,91.534,351.36300000000006,348.208,0.0
